[{"OBJECT_NAME":"IRIDE-MS2-HEO-4","OBJECT_ID":"2025-135BG","EPOCH":"2026-03-09T22:17:20.193216","MEAN_MOTION":14.93984506,"ECCENTRICITY":0.00032351,"INCLINATION":97.7591,"RA_OF_ASC_NODE":184.5437,"ARG_OF_PERICENTER":326.5453,"MEAN_ANOMALY":33.5562,"EPHEMERIS_TYPE":0,"CLASSIFICATION_TYPE":"U","NORAD_CAT_ID":64582,"ELEMENT_SET_NO":999,"REV_AT_EPOCH":3908,"BSTAR":0.0003778486,"MEAN_MOTION_DOT":3.97e-5,"MEAN_MOTION_DDOT":0},{"OBJECT_NAME":"OBJECT J","OBJECT_ID":"2019-093J","EPOCH":"2026-03-09T22:08:33.484128","MEAN_MOTION":14.91854297,"ECCENTRICITY":0.00138827,"INCLINATION":97.7938,"RA_OF_ASC_NODE":154.4383,"ARG_OF_PERICENTER":48.0524,"MEAN_ANOMALY":312.1875,"EPHEMERIS_TYPE":0,"CLASSIFICATION_TYPE":"U","NORAD_CAT_ID":44887,"ELEMENT_SET_NO":999,"REV_AT_EPOCH":33718,"BSTAR":0.0002737787,"MEAN_MOTION_DOT":2.713e-5,"MEAN_MOTION_DDOT":0}]
